NORAD_CAT_ID,OBJECT_NAME,OBJECT_TYPE,EPOCH,MEAN_MOTION,ECCENTRICITY,INCLINATION,RA_OF_ASC_NODE,ARG_OF_PERICENTER,MEAN_ANOMALY,BSTAR,MEAN_MOTION_DOT,MEAN_MOTION_DDOT,TLE_LINE0,TLE_LINE1,TLE_LINE2,SEMIMAJOR_AXIS,PERIOD,APOGEE,PERIGEE,DECAYED
53895.0,STARLINK-5032,PAYLOAD,2022-11-02 14:00:01,15.73151148,0.0002320999999999,53.2153,61.8901,24.9479,126.463,0.0004393,0.00061359,0.0,0 STARLINK-5032,1 53895U 22119K   22306.58334491  .00061359  00000-0  43930-3 0  9991,2 53895  53.2153  61.8901 0002321  24.9479 126.4630 15.73151148  1301,6728.034000000002,91.536,351.461,348.338,0.0
53895.0,STARLINK-5032,PAYLOAD,2022-11-02 18:00:02,15.73151271,0.000242,53.2156,61.0608,24.5143,351.4109,0.00087658,0.00123982,0.0,0 STARLINK-5032,1 53895U 22119K   22306.75002315  .00123982  00000-0  87658-3 0  9993,2 53895  53.2156  61.0608 0002420  24.5143 351.4109 15.73151271  6532,6728.034000000002,91.536,351.527,348.271,0.0
53895.0,STARLINK-5032,PAYLOAD,2022-11-02 22:00:00,15.73212872,0.0002374,53.2149,60.2417,22.6676,217.6071,0.00033418,0.00046569,0.0,0 STARLINK-5032,1 53895U 22119K   22306.91667824  .00046569  00000-0  33418-3 0  9993,2 53895  53.2149  60.2417 0002374  22.6676 217.6071 15.73212872  1307,6727.858,91.532,351.321,348.126,0.0
53895.0,STARLINK-5032,PAYLOAD,2022-11-03 04:00:00,15.73247791,0.0002201,53.2154,59.003,22.3313,194.6653,-2.2268e-05,-3.752e-05,0.0,0 STARLINK-5032,1 53895U 22119K   22307.16667824 -.00003752  00000-0 -22268-4 0  9992,2 53895  53.2154  59.0030 0002201  22.3313 194.6653 15.73247791  6600,6727.759,91.53,351.105,348.14300000000014,0.0
53895.0,STARLINK-5032,PAYLOAD,2022-11-03 14:00:01,15.73289553,0.000239,53.2165,56.9384,14.2051,44.0387,-0.00015722,-0.00022715,0.0,0 STARLINK-5032,1 53895U 22119K   22307.58334491 -.00022715  00000-0 -15722-3 0  9995,2 53895  53.2165  56.9384 0002390  14.2051  44.0387 15.73289553  6679,6727.64,91.528,351.11300000000006,347.897,0.0
53895.0,STARLINK-5032,PAYLOAD,2022-11-03 22:00:00,15.73312985,0.0002162,53.2162,55.2791,343.3674,163.9278,-0.0061486,-0.00790737,0.0,0 STARLINK-5032,1 53895U 22119K   22307.91667824 -.00790737  00000-0 -61486-2 0  9994,2 53895  53.2162  55.2791 0002162 343.3674 163.9278 15.73312985  6726,6727.573,91.527,350.89300000000014,347.9840000000001,0.0
53895.0,STARLINK-5032,PAYLOAD,2022-11-04 06:00:00,15.73016842,0.0002996,53.2171,53.6203,286.6256,309.3183,-0.0091143,-0.01133485,0.0,0 STARLINK-5032,1 53895U 22119K   22308.25001157 -.01133485  00000-0 -91143-2 0  9998,2 53895  53.2171  53.6203 0002996 286.6256 309.3183 15.73016842  6775,6728.417,91.544,352.298,348.267,0.0
53895.0,STARLINK-5032,PAYLOAD,2022-11-04 14:00:01,15.72205073,0.0005766,53.2172,51.9735,273.0772,51.0679,-0.0094822,-0.0113993,0.0,0 STARLINK-5032,1 53895U 22119K   22308.58334491 -.01139930  00000-0 -94822-2 0  9992,2 53895  53.2172  51.9735 0005766 273.0772  51.0679 15.72205073  1308,6730.733,91.591,356.47900000000016,348.717,0.0
53895.0,STARLINK-5032,PAYLOAD,2022-11-04 22:00:01,15.71383221,0.0006952,53.2172,50.3267,271.0023,140.4343,-0.0096739,-0.01125514,0.0,0 STARLINK-5032,1 53895U 22119K   22308.91668981 -.01125514  00000-0 -96739-2 0  9995,2 53895  53.2172  50.3267 0006952 271.0023 140.4343 15.71383221  1308,6733.08,91.639,359.626,350.264,0.0
53895.0,STARLINK-5032,PAYLOAD,2022-11-05 12:00:00,15.69891848,0.000274,53.2173,47.4542,289.5802,182.1108,-0.0094531,-0.01039337,0.0,0 STARLINK-5032,1 53895U 22119K   22309.50001157 -.01039337  00000-0 -94531-2 0  9992,2 53895  53.2173  47.4542 0002740 289.5802 182.1108 15.69891848  6978,6737.343000000003,91.726,361.054,357.362,0.0
53895.0,STARLINK-5032,PAYLOAD,2022-11-05 14:00:01,15.69744154,0.0002069,53.2174,47.0436,293.8078,289.1433,-0.010196,-0.01105909,0.0,0 STARLINK-5032,1 53895U 22119K   22309.58335648 -.01105909  00000-0 -10196-1 0  9998,2 53895  53.2174  47.0436 0002069 293.8078 289.1433 15.69744154  1302,6737.766,91.735,361.025,358.237,0.0
53895.0,STARLINK-5032,PAYLOAD,2022-11-05 22:00:01,15.68971936,7.190000000000001e-05,53.2169,45.4027,35.0706,272.1516,-0.01112,-0.01180083,0.0,0 STARLINK-5032,1 53895U 22119K   22309.91668981 -.01180083  00000-0 -11120-1 0  9998,2 53895  53.2169  45.4027 0000719  35.0706 272.1516 15.68971936  7037,6739.977,91.78,362.326,361.357,0.0
53895.0,STARLINK-5032,PAYLOAD,2022-11-06 14:00:01,15.67326299,0.00012,53.2173,42.1282,75.9948,36.8154,-0.011625,-0.01155403,0.0,0 STARLINK-5032,1 53895U 22119K   22310.58334491 -.01155403  00000-0 -11625-1 0  9997,2 53895  53.2173  42.1282 0001200  75.9948  36.8154 15.67326299  1308,6744.694,91.876,367.36800000000005,365.749,0.0
53895.0,STARLINK-5032,PAYLOAD,2022-11-07 06:00:00,15.65680282,0.0001164,53.2169,38.8592,68.8264,205.7276,-0.012111,-0.01128458,0.0,0 STARLINK-5032,1 53895U 22119K   22311.25001157 -.01128458  00000-0 -12111-1 0  9993,2 53895  53.2169  38.8592 0001164  68.8264 205.7276 15.65680282  7244,6749.42,91.973,372.071,370.499,0.0
53895.0,STARLINK-5032,PAYLOAD,2022-11-07 22:00:00,15.64058727,0.0001059,53.2175,35.6007,75.0311,357.3432,-0.01304,-0.01137516,0.0,0 STARLINK-5032,1 53895U 22119K   22311.91667824 -.01137516  00000-0 -13040-1 0  9992,2 53895  53.2175  35.6007 0001059  75.0311 357.3432 15.64058727  1304,6754.084,92.068,376.664,375.234,0.0
53895.0,STARLINK-5032,PAYLOAD,2022-11-08 12:00:00,15.62640053,0.000133,53.2174,32.7577,65.8623,51.3942,-0.013882,-0.01144196,0.0,0 STARLINK-5032,1 53895U 22119K   22312.50001157 -.01144196  00000-0 -13882-1 0  9995,2 53895  53.2174  32.7577 0001330  65.8623  51.3942 15.62640053  7443,6758.170999999999,92.152,380.935,379.138,0.0
53895.0,STARLINK-5032,PAYLOAD,2022-11-08 14:00:01,15.62428989,0.0001307,53.2176,32.3517,73.9334,152.3516,-0.013851,-0.01133316,0.0,0 STARLINK-5032,1 53895U 22119K   22312.58334491 -.01133316  00000-0 -13851-1 0  9991,2 53895  53.2176  32.3517 0001307  73.9334 152.3516 15.62428989  1308,6758.78,92.164,381.528,379.762,0.0
53895.0,STARLINK-5032,PAYLOAD,2022-11-08 22:00:00,15.61620745,0.0001216,53.2171,30.7283,59.0575,242.7148,-0.014419,-0.01142068,0.0,0 STARLINK-5032,1 53895U 22119K   22312.91667824 -.01142068  00000-0 -14419-1 0  9992,2 53895  53.2171  30.7283 0001216  59.0575 242.7148 15.61620745  1304,6761.111999999999,92.212,383.799,382.155,0.0
53895.0,STARLINK-5032,PAYLOAD,2022-11-09 14:00:01,15.60000673,0.0001329,53.2172,27.4913,55.0088,34.8017,-0.015466,-0.01149618,0.0,0 STARLINK-5032,1 53895U 22119K   22313.58334491 -.01149618  00000-0 -15466-1 0  9998,2 53895  53.2172  27.4913 0001329  55.0088  34.8017 15.60000673  7614,6765.792,92.308,388.556,386.758,0.0
53895.0,STARLINK-5032,PAYLOAD,2022-11-09 22:00:01,15.59181499,0.000149,53.2171,25.8731,50.5131,111.9219,-0.015862,-0.01143261,0.0,0 STARLINK-5032,1 53895U 22119K   22313.91668981 -.01143261  00000-0 -15862-1 0  9997,2 53895  53.2171  25.8731 0001490  50.5131 111.9219 15.59181499  1306,6768.1619999999975,92.356,391.035,389.018,0.0
53895.0,STARLINK-5032,PAYLOAD,2022-11-10 14:00:01,15.57572407,0.000118,53.2174,22.648000000000003,56.769,247.7661,-0.0172189999999999,-0.01164907,0.0,0 STARLINK-5032,1 53895U 22119K   22314.58334491 -.01164907  00000-0 -17219-1 0  9995,2 53895  53.2174  22.6480 0001180  56.7690 247.7661 15.57572407  1309,6772.821999999999,92.452,395.486,393.888,0.0
53895.0,STARLINK-5032,PAYLOAD,2022-11-10 20:00:01,15.56980655,0.0001467,53.217,21.4389,51.2417,215.5915,-0.017995,-0.01188068,0.0,0 STARLINK-5032,1 53895U 22119K   22314.83334491 -.01188068  00000-0 -17995-1 0  9998,2 53895  53.2170  21.4389 0001467  51.2417 215.5915 15.56980655  7808,6774.538000000001,92.487,397.397,395.409,0.0
53895.0,STARLINK-5032,PAYLOAD,2022-11-10 22:00:00,15.56749146,0.00014,53.2173,21.0357,43.8102,330.3535,-0.017584,-0.01154467,0.0,0 STARLINK-5032,1 53895U 22119K   22314.91667824 -.01154467  00000-0 -17584-1 0  9996,2 53895  53.2173  21.0357 0001400  43.8102 330.3535 15.56749146  1308,6775.21,92.5,398.023,396.126,0.0
53895.0,STARLINK-5032,PAYLOAD,2022-11-11 14:00:01,15.55111868,0.0001543,53.2173,17.8223,51.2054,99.2706,-0.018408,-0.01138663,0.0,0 STARLINK-5032,1 53895U 22119K   22315.58334491 -.01138663  00000-0 -18408-1 0  9997,2 53895  53.2173  17.8223 0001543  51.2054  99.2706 15.55111868  7928,6779.964,92.598,402.876,400.783,0.0
53895.0,STARLINK-5032,PAYLOAD,2022-11-11 22:00:00,15.54317677,0.0001496,53.2172,16.2161,49.1867,167.9685,-0.019437,-0.01164659,0.0,0 STARLINK-5032,1 53895U 22119K   22315.91667824 -.01164659  00000-0 -19437-1 0  9990,2 53895  53.2172  16.2161 0001496  49.1867 167.9685 15.54317677  1306,6782.274,92.645,405.153,403.124,0.0
53895.0,STARLINK-5032,PAYLOAD,2022-11-12 14:00:01,15.52693221,0.000124,53.217,13.0143,53.3679,294.2275,-0.02071,-0.01168695,0.0,0 STARLINK-5032,1 53895U 22119K   22316.58334491 -.01168695  00000-0 -20710-1 0  9995,2 53895  53.2170  13.0143 0001240  53.3679 294.2275 15.52693221  8074,6787.003000000002,92.742,409.71,408.027,0.0
53895.0,STARLINK-5032,PAYLOAD,2022-11-12 22:00:00,15.51858164,0.0001554,53.2171,11.4137,34.1555,17.2063,-0.020777,-0.01140613,0.0,0 STARLINK-5032,1 53895U 22119K   22316.91667824 -.01140613  00000-0 -20777-1 0  9994,2 53895  53.2171  11.4137 0001554  34.1555  17.2063 15.51858164  1303,6789.438,92.792,412.358,410.24800000000016,0.0
53895.0,STARLINK-5032,PAYLOAD,2022-11-13 14:00:01,15.50181925,0.0001228,53.2171,8.2239,42.7901,133.1416,-0.0076684,-0.00417633,0.0,0 STARLINK-5032,1 53895U 22119K   22317.58334491 -.00417633  00000-0 -76684-2 0  9996,2 53895  53.2171   8.2239 0001228  42.7901 133.1416 15.50181925  1301,6794.331,92.892,417.031,415.362,0.0
53895.0,STARLINK-5032,PAYLOAD,2022-11-13 22:00:00,15.4996219,0.0001633,53.2151,6.6332,48.4572,188.5709,-0.001717,-0.0009697,0.0,0 STARLINK-5032,1 53895U 22119K   22317.91667824 -.00096970  00000-0 -17170-2 0  9994,2 53895  53.2151   6.6332 0001633  48.4572 188.5709 15.49962190  8284,6794.974,92.905,417.948,415.729,0.0
